[{"OBJECT_NAME":"LING QIAO","OBJECT_ID":"2014-051A","EPOCH":"2026-03-09T23:57:46.118880","MEAN_MOTION":14.30251785,"ECCENTRICITY":0.00219198,"INCLINATION":98.707,"RA_OF_ASC_NODE":70.7191,"ARG_OF_PERICENTER":102.9977,"MEAN_ANOMALY":257.3655,"EPHEMERIS_TYPE":0,"CLASSIFICATION_TYPE":"U","NORAD_CAT_ID":40136,"ELEMENT_SET_NO":999,"REV_AT_EPOCH":60082,"BSTAR":-4.195914e-5,"MEAN_MOTION_DOT":-1.54e-6,"MEAN_MOTION_DDOT":0},{"OBJECT_NAME":"IRIDIUM 165","OBJECT_ID":"2018-061D","EPOCH":"2026-03-09T12:28:22.404000","MEAN_MOTION":14.34217296,"ECCENTRICITY":0.00020877,"INCLINATION":86.3917,"RA_OF_ASC_NODE":98.4934,"ARG_OF_PERICENTER":96.9181,"MEAN_ANOMALY":263.2252,"EPHEMERIS_TYPE":0,"CLASSIFICATION_TYPE":"U","NORAD_CAT_ID":43572,"ELEMENT_SET_NO":999,"REV_AT_EPOCH":39910,"BSTAR":7.29473e-7,"MEAN_MOTION_DOT":2.2e-7,"MEAN_MOTION_DDOT":0}]
